NORAD_CAT_ID,OBJECT_NAME,OBJECT_TYPE,EPOCH,MEAN_MOTION,ECCENTRICITY,INCLINATION,RA_OF_ASC_NODE,ARG_OF_PERICENTER,MEAN_ANOMALY,BSTAR,MEAN_MOTION_DOT,MEAN_MOTION_DDOT,TLE_LINE0,TLE_LINE1,TLE_LINE2,SEMIMAJOR_AXIS,PERIOD,APOGEE,PERIGEE,DECAYED
52675.0,STARLINK-3934,PAYLOAD,2022-06-14 06:00:00,15.73179388,0.0002708,53.2141,165.114,16.188,220.0884,-0.00010345,-0.00015104,0.0,0 STARLINK-3934,1 52675U 22053V   22165.25001157 -.00015104  00000-0 -10345-3 0  9993,2 52675  53.2141 165.1140 0002708  16.1880 220.0884 15.73179388  4541,6727.954000000002,91.534,351.641,347.997,0.0
52675.0,STARLINK-3934,PAYLOAD,2022-06-14 14:00:01,15.73206287,0.000273,53.2139,163.4643,14.3088,310.8423,-0.00033337,-0.00047169,0.0,0 STARLINK-3934,1 52675U 22053V   22165.58334491 -.00047169  00000-0 -33337-3 0  9991,2 52675  53.2139 163.4643 0002730  14.3088 310.8423 15.73206287  1309,6727.877,91.533,351.579,347.906,0.0
52675.0,STARLINK-3934,PAYLOAD,2022-06-14 22:00:00,15.73132216,0.0002452,53.2141,161.8131,15.0792,39.0007,0.00046582,0.00065078,0.0,0 STARLINK-3934,1 52675U 22053V   22165.91667824  .00065078  00000-0  46582-3 0  9990,2 52675  53.2141 161.8131 0002452  15.0792  39.0007 15.73132216  1305,6728.0880000000025,91.537,351.603,348.30400000000014,0.0
52675.0,STARLINK-3934,PAYLOAD,2022-06-15 06:00:00,15.73178227,0.0002707,53.2138,160.1657,15.2548,127.7015,0.0001764,0.00024186,0.0,0 STARLINK-3934,1 52675U 22053V   22166.25001157  .00024186  00000-0  17640-3 0  9997,2 52675  53.2138 160.1657 0002707  15.2548 127.7015 15.73178227  4691,6727.956999999999,91.534,351.644,348.001,0.0
52675.0,STARLINK-3934,PAYLOAD,2022-06-15 14:00:01,15.73228632,0.0002671,53.2136,158.5159,15.0872,216.7796,2.5553e-05,2.97e-05,0.0,0 STARLINK-3934,1 52675U 22053V   22166.58334491  .00002970  00000-0  25553-4 0  9993,2 52675  53.2136 158.5159 0002671  15.0872 216.7796 15.73228632  1301,6727.814,91.532,351.476,347.88199999999995,0.0
52675.0,STARLINK-3934,PAYLOAD,2022-06-15 22:00:00,15.73250117,0.0002493,53.2141,156.8645,20.759,300.086,-0.00018313,-0.00026302,0.0,0 STARLINK-3934,1 52675U 22053V   22166.91667824 -.00026302  00000-0 -18313-3 0  9991,2 52675  53.2141 156.8645 0002493  20.7590 300.0860 15.73250117  4800,6727.752,91.53,351.295,347.94,0.0
52675.0,STARLINK-3934,PAYLOAD,2022-06-16 02:00:01,15.73253286,0.0002581,53.2145,156.0407,22.5537,162.7909,-0.0002114,-0.00030257,0.0,0 STARLINK-3934,1 52675U 22053V   22167.08334491 -.00030257  00000-0 -21140-3 0  9997,2 52675  53.2145 156.0407 0002581  22.5537 162.7909 15.73253286  1300,6727.743,91.53,351.345,347.872,0.0
52675.0,STARLINK-3934,PAYLOAD,2022-06-19 14:00:01,15.73234649,0.0002461,53.214,138.7217,19.5667,199.5092,-0.00030489,-0.00043262,0.0,0 STARLINK-3934,1 52675U 22053V   22170.58334491 -.00043262  00000-0 -30489-3 0  9992,2 52675  53.2140 138.7217 0002461  19.5667 199.5092 15.73234649  1301,6727.795999999999,91.531,351.31699999999995,348.006,0.0
52675.0,STARLINK-3934,PAYLOAD,2022-06-19 22:00:00,15.73183498,0.0002262,53.2144,137.071,20.543000000000006,287.4891,0.00035626,0.00049642,0.0,0 STARLINK-3934,1 52675U 22053V   22170.91667824  .00049642  00000-0  35626-3 0  9992,2 52675  53.2144 137.0710 0002262  20.5430 287.4891 15.73183498  1303,6727.941999999999,91.534,351.329,348.285,0.0
52675.0,STARLINK-3934,PAYLOAD,2022-06-20 06:00:00,15.73217374,0.0002566,53.2145,135.4238,19.2195,17.729,1.5013e-05,1.487e-05,0.0,0 STARLINK-3934,1 52675U 22053V   22171.25001157  .00001487  00000-0  15013-4 0  9995,2 52675  53.2145 135.4238 0002566  19.2195  17.7290 15.73217374  5482,6727.846,91.532,351.43699999999984,347.9840000000001,0.0
52675.0,STARLINK-3934,PAYLOAD,2022-06-20 14:00:01,15.7320687,0.000247,53.2144,133.7728,21.0767,104.829,-0.00014526,-0.00020966,0.0,0 STARLINK-3934,1 52675U 22053V   22171.58334491 -.00020966  00000-0 -14526-3 0  9993,2 52675  53.2144 133.7728 0002470  21.0767 104.8290 15.73206870  1300,6727.876,91.533,351.402,348.079,0.0
52675.0,STARLINK-3934,PAYLOAD,2022-06-20 20:00:01,15.732019199999998,0.0002316,53.2143,132.5347,23.3895,79.2156,-0.0001444,-0.00020841,0.0,0 STARLINK-3934,1 52675U 22053V   22171.83334491 -.00020841  00000-0 -14440-3 0  9998,2 52675  53.2143 132.5347 0002316  23.3895  79.2156 15.73201920  5579,6727.89,91.533,351.31300000000016,348.19699999999995,0.0
52675.0,STARLINK-3934,PAYLOAD,2022-06-20 22:00:00,15.73200021,0.0002301,53.2144,132.1226,23.6175,191.2179,-0.00011806,-0.00017159,0.0,0 STARLINK-3934,1 52675U 22053V   22171.91667824 -.00017159  00000-0 -11806-3 0  9997,2 52675  53.2144 132.1226 0002301  23.6175 191.2179 15.73200021  1308,6727.895,91.533,351.30800000000005,348.212,0.0
52675.0,STARLINK-3934,PAYLOAD,2022-06-21 06:00:00,15.73176589,0.0002533,53.2139,130.4751,20.6663,283.1007,0.00054659,0.00076723,0.0,0 STARLINK-3934,1 52675U 22053V   22172.25001157  .00076723  00000-0  54659-3 0  9999,2 52675  53.2139 130.4751 0002533  20.6663 283.1007 15.73176589  5645,6727.962,91.535,351.531,348.12300000000016,0.0
52675.0,STARLINK-3934,PAYLOAD,2022-06-21 14:00:01,15.73261495,0.0002315,53.2135,128.8241,19.2759,13.4119,-0.00034636,-0.00049083,0.0,0 STARLINK-3934,1 52675U 22053V   22172.58334491 -.00049083  00000-0 -34636-3 0  9999,2 52675  53.2135 128.8241 0002315  19.2759  13.4119 15.73261495  1302,6727.72,91.53,351.142,348.027,0.0
52675.0,STARLINK-3934,PAYLOAD,2022-06-21 22:00:00,15.73234029,0.0002167,53.2138,127.1737,21.4257,100.2415,-0.00053863,-0.00075657,0.0,0 STARLINK-3934,1 52675U 22053V   22172.91667824 -.00075657  00000-0 -53863-3 0  9994,2 52675  53.2138 127.1737 0002167  21.4257 100.2415 15.73234029  5749,6727.7980000000025,91.531,351.121,348.205,0.0
52675.0,STARLINK-3934,PAYLOAD,2022-06-22 14:00:01,15.7314418,0.000224,53.2139,123.8751,17.2257,282.2386,0.00019583,0.00026887,0.0,0 STARLINK-3934,1 52675U 22053V   22173.58334491  .00026887  00000-0  19583-3 0  9999,2 52675  53.2139 123.8751 0002240  17.2257 282.2386 15.73144180  1308,6728.054,91.536,351.426,348.412,0.0
52675.0,STARLINK-3934,PAYLOAD,2022-06-22 22:00:00,15.73193007,0.0002163,53.2139,122.2253,20.267,8.0738,0.00030103,0.00041827,0.0,0 STARLINK-3934,1 52675U 22053V   22173.91667824  .00041827  00000-0  30103-3 0  9997,2 52675  53.2139 122.2253 0002163  20.2670   8.0738 15.73193007  5902,6727.915,91.534,351.235,348.325,0.0
52675.0,STARLINK-3934,PAYLOAD,2022-06-23 14:00:01,15.73255911,0.0002299,53.2132,118.9262,24.9105,181.3198,-0.00051154,-0.00071983,0.0,0 STARLINK-3934,1 52675U 22053V   22174.58334491 -.00071983  00000-0 -51154-3 0  9999,2 52675  53.2132 118.9262 0002299  24.9105 181.3198 15.73255911  6012,6727.736,91.53,351.147,348.05400000000014,0.0
52675.0,STARLINK-3934,PAYLOAD,2022-06-23 22:00:00,15.73226425,0.0002293,53.2135,117.2763,33.4659,261.7298,-0.00027581,-0.00039198,0.0,0 STARLINK-3934,1 52675U 22053V   22174.91667824 -.00039198  00000-0 -27581-3 0  9994,2 52675  53.2135 117.2763 0002293  33.4659 261.7298 15.73226425  1305,6727.82,91.532,351.228,348.142,0.0
52675.0,STARLINK-3934,PAYLOAD,2022-06-24 04:00:00,15.731659900000002,0.0002582,53.2135,116.0409,32.7804,239.1088,0.00033771,0.00046976,0.0,0 STARLINK-3934,1 52675U 22053V   22175.16667824  .00046976  00000-0  33771-3 0  9990,2 52675  53.2135 116.0409 0002582  32.7804 239.1088 15.73165990  6102,6727.9919999999975,91.535,351.594,348.12,0.0
52675.0,STARLINK-3934,PAYLOAD,2022-06-24 14:00:01,15.73203718,0.0002277,53.2176,113.9788,33.9658,79.0623,8.7027e-06,6e-06,0.0,0 STARLINK-3934,1 52675U 22053V   22175.58334491  .00000600  00000-0  87027-5 0  9996,2 52675  53.2176 113.9788 0002277  33.9658  79.0623 15.73203718  1308,6727.885,91.533,351.282,348.218,0.0
52675.0,STARLINK-3934,PAYLOAD,2022-06-24 22:00:01,15.73313166,0.000233,53.2156,112.3278,36.8001,165.2468,-0.0014786,-0.00204203,0.0,0 STARLINK-3934,1 52675U 22053V   22175.91668981 -.00204203  00000-0 -14786-2 0  9993,2 52675  53.2156 112.3278 0002330  36.8001 165.2468 15.73313166  1301,6727.573,91.527,351.005,347.87,0.0
52675.0,STARLINK-3934,PAYLOAD,2022-06-25 06:00:00,15.731856400000002,0.0002475,53.2135,110.68,28.1707,262.7978,0.00050981,0.00071501,0.0,0 STARLINK-3934,1 52675U 22053V   22176.25001157  .00071501  00000-0  50981-3 0  9996,2 52675  53.2135 110.6800 0002475  28.1707 262.7978 15.73185640  6271,6727.936,91.534,351.466,348.136,0.0
52675.0,STARLINK-3934,PAYLOAD,2022-06-25 14:00:01,15.73230402,0.0002078,53.2135,109.0283,28.2001,351.7267,-0.00029383,-0.00041712,0.0,0 STARLINK-3934,1 52675U 22053V   22176.58334491 -.00041712  00000-0 -29383-3 0  9997,2 52675  53.2135 109.0283 0002078  28.2001 351.7267 15.73230402  1301,6727.808000000001,91.531,351.07199999999995,348.275,0.0
52675.0,STARLINK-3934,PAYLOAD,2022-06-25 20:00:01,15.73208456,0.0001999,53.2138,107.7908,27.6689,328.9711,0.00029657,0.00041222,0.0,0 STARLINK-3934,1 52675U 22053V   22176.83334491  .00041222  00000-0  29657-3 0  9993,2 52675  53.2138 107.7908 0001999  27.6689 328.9711 15.73208456  6364,6727.871,91.533,351.081,348.391,0.0
52675.0,STARLINK-3934,PAYLOAD,2022-06-25 22:00:00,15.73241708,0.0002039,53.2138,107.379,26.8822,81.9868,-0.0001747,-0.00025112,0.0,0 STARLINK-3934,1 52675U 22053V   22176.91667824 -.00025112  00000-0 -17470-3 0  9993,2 52675  53.2138 107.3790 0002039  26.8822  81.9868 15.73241708  1300,6727.776,91.531,351.01300000000015,348.269,0.0
52675.0,STARLINK-3934,PAYLOAD,2022-06-26 14:00:01,15.73236022,0.0002061,53.2143,104.0794,26.3378,260.5622,-0.00036533,-0.00051663,0.0,0 STARLINK-3934,1 52675U 22053V   22177.58335648 -.00051663  00000-0 -36533-3 0  9994,2 52675  53.2143 104.0794 0002061  26.3378 260.5622 15.73236022  6480,6727.792,91.531,351.0440000000001,348.271,0.0
52675.0,STARLINK-3934,PAYLOAD,2022-06-26 22:00:00,15.73195986,0.0002184,53.2144,102.4304,33.7389,342.0468,-6.9291e-05,-0.00010333,0.0,0 STARLINK-3934,1 52675U 22053V   22177.91667824 -.00010333  00000-0 -69291-4 0  9992,2 52675  53.2144 102.4304 0002184  33.7389 342.0468 15.73195986  1303,6727.906999999997,91.533,351.241,348.302,0.0
